STARLINK-30270          
1 57530U 23115K   25358.54800180 -.00000872  00000+0 -49433-4 0  9996
2 57530  43.0042  52.8311 0001512 272.1191  87.9478 15.02542948131016
STARLINK-30268          
1 57531U 23115L   25358.22893889 -.00001274  00000+0 -79294-4 0  9995
2 57531  43.0049  54.7370 0001543 275.9318  84.1349 15.02528813130960
STARLINK-30251          
1 57532U 23115M   25358.55577115  .00000883  00000+0  80426-4 0  9995
2 57532  43.0033  52.8769 0001372 267.1062  92.9624 15.02531676131015
STARLINK-30254          
1 57533U 23115N   25358.78045053  .00000463  00000+0  26327-4 0  9996
2 57533  43.0017 166.2111 0000884 269.8098  90.2652 15.27586606133906
STARLINK-30264          
1 57534U 23115P   25358.14813138 -.00001722  00000+0 -53100-4 0  9994
2 57534  42.9975 275.5157 0000253 245.2336 114.8490 15.27562942133804
STARLINK-30166          
1 57602U 23119A   25358.38350805  .00000018  00000+0  16404-4 0  9998
2 57602  43.0020 131.1698 0001227 262.8891  97.1812 15.02535270131696
STARLINK-30223          
1 57603U 23119B   25358.82887414  .00000543  00000+0  55238-4 0  9990
2 57603  43.0030 128.4821 0001386 269.0232  91.0452 15.02538464131814
STARLINK-30218          
1 57604U 23119C   25358.76906208 -.00000489  00000+0 -21159-4 0  9993
2 57604  43.0019 128.8999 0001028 254.4292 105.6437 15.02532933131819
STARLINK-30138          
1 57605U 23119D   25358.63277570 -.00000385  00000+0 -13445-4 0  9997
2 57605  43.0033 129.6016 0001496 267.7790  92.2881 15.02539751131790
STARLINK-30255          
1 57606U 23119E   25358.40781457 -.00000148  00000+0  41582-5 0  9997
2 57606  43.0062 130.4915 0001648 270.9590  89.1063 15.02534246131762
STARLINK-30252          
1 57607U 23119F   25358.64305016  .00000824  00000+0  76085-4 0  9992
2 57607  43.0028 116.9369 0001925 275.3468  84.7155 15.02540638131943
STARLINK-30258          
1 57608U 23119G   25358.35797843 -.00000265  00000+0 -45547-5 0  9995
2 57608  42.9988 130.9763 0000474 290.0991  69.9800 15.02534293131755
STARLINK-30174          
1 57609U 23119H   25358.74907624  .00000532  00000+0  54453-4 0  9999
2 57609  43.0012 128.7471 0001594 261.4118  98.6544 15.02540502131815
STARLINK-30248          
1 57610U 23119J   25358.35354687  .00000150  00000+0  26168-4 0  9991
2 57610  43.0034 130.9441 0001347 265.7142  94.3546 15.02536622131759
STARLINK-30052          
1 57611U 23119K   25358.74575046 -.00000394  00000+0 -14067-4 0  9996
2 57611  43.0017 128.7225 0001350 277.3935  82.6754 15.02540163131799
STARLINK-30245          
1 57612U 23119L   25358.41003331 -.00000024  00000+0  13316-4 0  9999
2 57612  43.0024 130.5053 0001199 267.1715  92.8990 15.02537184131763
