[{"OBJECT_NAME":"STARLINK-30270","OBJECT_ID":"2023-115K","EPOCH":"2025-12-24T13:09:07.355520","MEAN_MOTION":15.02542948,"ECCENTRICITY":0.00015128,"INCLINATION":43.0042,"RA_OF_ASC_NODE":52.8311,"ARG_OF_PERICENTER":272.1191,"MEAN_ANOMALY":87.9478,"EPHEMERIS_TYPE":0,"CLASSIFICATION_TYPE":"U","NORAD_CAT_ID":57530,"ELEMENT_SET_NO":999,"REV_AT_EPOCH":13101,"BSTAR":-4.9433232e-5,"MEAN_MOTION_DOT":-8.72e-6,"MEAN_MOTION_DDOT":0},{"OBJECT_NAME":"STARLINK-30268","OBJECT_ID":"2023-115L","EPOCH":"2025-12-24T05:29:40.320096","MEAN_MOTION":15.02528813,"ECCENTRICITY":0.00015438,"INCLINATION":43.0049,"RA_OF_ASC_NODE":54.737,"ARG_OF_PERICENTER":275.9318,"MEAN_ANOMALY":84.1349,"EPHEMERIS_TYPE":0,"CLASSIFICATION_TYPE":"U","NORAD_CAT_ID":57531,"ELEMENT_SET_NO":999,"REV_AT_EPOCH":13096,"BSTAR":-7.9294138e-5,"MEAN_MOTION_DOT":-1.274e-5,"MEAN_MOTION_DDOT":0},{"OBJECT_NAME":"STARLINK-30251","OBJECT_ID":"2023-115M","EPOCH":"2025-12-24T13:20:18.627360","MEAN_MOTION":15.02531676,"ECCENTRICITY":0.00013725,"INCLINATION":43.0033,"RA_OF_ASC_NODE":52.8769,"ARG_OF_PERICENTER":267.1062,"MEAN_ANOMALY":92.9624,"EPHEMERIS_TYPE":0,"CLASSIFICATION_TYPE":"U","NORAD_CAT_ID":57532,"ELEMENT_SET_NO":999,"REV_AT_EPOCH":13101,"BSTAR":8.0426452e-5,"MEAN_MOTION_DOT":8.83e-6,"MEAN_MOTION_DDOT":0},{"OBJECT_NAME":"STARLINK-30254","OBJECT_ID":"2023-115N","EPOCH":"2025-12-24T18:43:50.925792","MEAN_MOTION":15.27586606,"ECCENTRICITY":8.842e-5,"INCLINATION":43.0017,"RA_OF_ASC_NODE":166.2111,"ARG_OF_PERICENTER":269.8098,"MEAN_ANOMALY":90.2652,"EPHEMERIS_TYPE":0,"CLASSIFICATION_TYPE":"U","NORAD_CAT_ID":57533,"ELEMENT_SET_NO":999,"REV_AT_EPOCH":13390,"BSTAR":2.6326903e-5,"MEAN_MOTION_DOT":4.63e-6,"MEAN_MOTION_DDOT":0},{"OBJECT_NAME":"STARLINK-30264","OBJECT_ID":"2023-115P","EPOCH":"2025-12-24T03:33:18.551232","MEAN_MOTION":15.27562942,"ECCENTRICITY":2.535e-5,"INCLINATION":42.9975,"RA_OF_ASC_NODE":275.5157,"ARG_OF_PERICENTER":245.2336,"MEAN_ANOMALY":114.849,"EPHEMERIS_TYPE":0,"CLASSIFICATION_TYPE":"U","NORAD_CAT_ID":57534,"ELEMENT_SET_NO":999,"REV_AT_EPOCH":13380,"BSTAR":-5.3099521e-5,"MEAN_MOTION_DOT":-1.722e-5,"MEAN_MOTION_DDOT":0},{"OBJECT_NAME":"STARLINK-30166","OBJECT_ID":"2023-119A","EPOCH":"2025-12-24T09:12:15.095520","MEAN_MOTION":15.0253527,"ECCENTRICITY":0.00012279,"INCLINATION":43.002,"RA_OF_ASC_NODE":131.1698,"ARG_OF_PERICENTER":262.8891,"MEAN_ANOMALY":97.1812,"EPHEMERIS_TYPE":0,"CLASSIFICATION_TYPE":"U","NORAD_CAT_ID":57602,"ELEMENT_SET_NO":999,"REV_AT_EPOCH":13169,"BSTAR":1.6403851e-5,"MEAN_MOTION_DOT":1.8e-7,"MEAN_MOTION_DDOT":0},{"OBJECT_NAME":"STARLINK-30223","OBJECT_ID":"2023-119B","EPOCH":"2025-12-24T19:53:34.725696","MEAN_MOTION":15.02538464,"ECCENTRICITY":0.00013867,"INCLINATION":43.003,"RA_OF_ASC_NODE":128.4821,"ARG_OF_PERICENTER":269.0232,"MEAN_ANOMALY":91.0452,"EPHEMERIS_TYPE":0,"CLASSIFICATION_TYPE":"U","NORAD_CAT_ID":57603,"ELEMENT_SET_NO":999,"REV_AT_EPOCH":13181,"BSTAR":5.5238267e-5,"MEAN_MOTION_DOT":5.43e-6,"MEAN_MOTION_DDOT":0},{"OBJECT_NAME":"STARLINK-30218","OBJECT_ID":"2023-119C","EPOCH":"2025-12-24T18:27:26.963712","MEAN_MOTION":15.02532933,"ECCENTRICITY":0.00010285,"INCLINATION":43.0019,"RA_OF_ASC_NODE":128.8999,"ARG_OF_PERICENTER":254.4292,"MEAN_ANOMALY":105.6437,"EPHEMERIS_TYPE":0,"CLASSIFICATION_TYPE":"U","NORAD_CAT_ID":57604,"ELEMENT_SET_NO":999,"REV_AT_EPOCH":13181,"BSTAR":-2.1159029e-5,"MEAN_MOTION_DOT":-4.89e-6,"MEAN_MOTION_DDOT":0},{"OBJECT_NAME":"STARLINK-30138","OBJECT_ID":"2023-119D","EPOCH":"2025-12-24T15:11:11.820480","MEAN_MOTION":15.02539751,"ECCENTRICITY":0.0001496,"INCLINATION":43.0033,"RA_OF_ASC_NODE":129.6016,"ARG_OF_PERICENTER":267.779,"MEAN_ANOMALY":92.2881,"EPHEMERIS_TYPE":0,"CLASSIFICATION_TYPE":"U","NORAD_CAT_ID":57605,"ELEMENT_SET_NO":999,"REV_AT_EPOCH":13179,"BSTAR":-1.3445028e-5,"MEAN_MOTION_DOT":-3.85e-6,"MEAN_MOTION_DDOT":0},{"OBJECT_NAME":"STARLINK-30255","OBJECT_ID":"2023-119E","EPOCH":"2025-12-24T09:47:15.178848","MEAN_MOTION":15.02534246,"ECCENTRICITY":0.00016488,"INCLINATION":43.0062,"RA_OF_ASC_NODE":130.4915,"ARG_OF_PERICENTER":270.959,"MEAN_ANOMALY":89.1063,"EPHEMERIS_TYPE":0,"CLASSIFICATION_TYPE":"U","NORAD_CAT_ID":57606,"ELEMENT_SET_NO":999,"REV_AT_EPOCH":13176,"BSTAR":4.158246e-6,"MEAN_MOTION_DOT":-1.48e-6,"MEAN_MOTION_DDOT":0},{"OBJECT_NAME":"STARLINK-30252","OBJECT_ID":"2023-119F","EPOCH":"2025-12-24T15:25:59.533824","MEAN_MOTION":15.02540638,"ECCENTRICITY":0.00019259,"INCLINATION":43.0028,"RA_OF_ASC_NODE":116.9369,"ARG_OF_PERICENTER":275.3468,"MEAN_ANOMALY":84.7155,"EPHEMERIS_TYPE":0,"CLASSIFICATION_TYPE":"U","NORAD_CAT_ID":57607,"ELEMENT_SET_NO":999,"REV_AT_EPOCH":13194,"BSTAR":7.608457e-5,"MEAN_MOTION_DOT":8.24e-6,"MEAN_MOTION_DDOT":0},{"OBJECT_NAME":"STARLINK-30258","OBJECT_ID":"2023-119G","EPOCH":"2025-12-24T08:35:29.336352","MEAN_MOTION":15.02534293,"ECCENTRICITY":4.745e-5,"INCLINATION":42.9988,"RA_OF_ASC_NODE":130.9763,"ARG_OF_PERICENTER":290.0991,"MEAN_ANOMALY":69.98,"EPHEMERIS_TYPE":0,"CLASSIFICATION_TYPE":"U","NORAD_CAT_ID":57608,"ELEMENT_SET_NO":999,"REV_AT_EPOCH":13175,"BSTAR":-4.55475e-6,"MEAN_MOTION_DOT":-2.65e-6,"MEAN_MOTION_DDOT":0},{"OBJECT_NAME":"STARLINK-30174","OBJECT_ID":"2023-119H","EPOCH":"2025-12-24T17:58:40.187136","MEAN_MOTION":15.02540502,"ECCENTRICITY":0.00015948,"INCLINATION":43.0012,"RA_OF_ASC_NODE":128.7471,"ARG_OF_PERICENTER":261.4118,"MEAN_ANOMALY":98.6544,"EPHEMERIS_TYPE":0,"CLASSIFICATION_TYPE":"U","NORAD_CAT_ID":57609,"ELEMENT_SET_NO":999,"REV_AT_EPOCH":13181,"BSTAR":5.4453036e-5,"MEAN_MOTION_DOT":5.32e-6,"MEAN_MOTION_DDOT":0},{"OBJECT_NAME":"STARLINK-30248","OBJECT_ID":"2023-119J","EPOCH":"2025-12-24T08:29:06.449568","MEAN_MOTION":15.02536622,"ECCENTRICITY":0.00013472,"INCLINATION":43.0034,"RA_OF_ASC_NODE":130.9441,"ARG_OF_PERICENTER":265.7142,"MEAN_ANOMALY":94.3546,"EPHEMERIS_TYPE":0,"CLASSIFICATION_TYPE":"U","NORAD_CAT_ID":57610,"ELEMENT_SET_NO":999,"REV_AT_EPOCH":13175,"BSTAR":2.6167557e-5,"MEAN_MOTION_DOT":1.5e-6,"MEAN_MOTION_DDOT":0},{"OBJECT_NAME":"STARLINK-30052","OBJECT_ID":"2023-119K","EPOCH":"2025-12-24T17:53:52.839744","MEAN_MOTION":15.02540163,"ECCENTRICITY":0.00013506,"INCLINATION":43.0017,"RA_OF_ASC_NODE":128.7225,"ARG_OF_PERICENTER":277.3935,"MEAN_ANOMALY":82.6754,"EPHEMERIS_TYPE":0,"CLASSIFICATION_TYPE":"U","NORAD_CAT_ID":57611,"ELEMENT_SET_NO":999,"REV_AT_EPOCH":13179,"BSTAR":-1.4067226e-5,"MEAN_MOTION_DOT":-3.94e-6,"MEAN_MOTION_DDOT":0},{"OBJECT_NAME":"STARLINK-30245","OBJECT_ID":"2023-119L","EPOCH":"2025-12-24T09:50:26.877984","MEAN_MOTION":15.02537184,"ECCENTRICITY":0.00011998,"INCLINATION":43.0024,"RA_OF_ASC_NODE":130.5053,"ARG_OF_PERICENTER":267.1715,"MEAN_ANOMALY":92.899,"EPHEMERIS_TYPE":0,"CLASSIFICATION_TYPE":"U","NORAD_CAT_ID":57612,"ELEMENT_SET_NO":999,"REV_AT_EPOCH":13176,"BSTAR":1.3315662e-5,"MEAN_MOTION_DOT":-2.4e-7,"MEAN_MOTION_DDOT":0}]
